HAWK-5A                 
1 52757U 22057AB  26156.69019298  .00020257  00000+0  35047-3 0  9993
2 52757  97.6593 314.8005 0005998 112.8604 247.3281 15.50965018224567
HAWK-6B                 
1 55324U 23011A   26156.44454805  .00004550  00000+0  19855-3 0  9994
2 55324  40.4987  60.5579 0004247 298.5171  61.5210 15.22821670186054
HAWK-6C                 
1 55326U 23011C   26154.93554619  .00004636  00000+0  20221-3 0  9996
2 55326  40.4982  66.1967 0004826 281.1122  78.9144 15.22812682185837
HAWK-6A                 
1 55327U 23011D   26156.44393701  .00004870  00000+0  21190-3 0  9994
2 55327  40.4988  59.0238 0004380 287.8915  72.1417 15.22823281186066
HAWK-7A                 
1 56191U 23054P   26155.66204525  .00001811  00000+0  70547-4 0  9992
2 56191  97.2694  43.3169 0004651  84.2511 275.9259 15.27218144175113
HAWK-7B                 
1 56193U 23054R   26156.90685390  .00007302  00000+0  27614-3 0  9992
2 56193  97.2736  42.7908 0004039  90.9983 269.1719 15.27243133175306
HAWK-7C                 
1 56200U 23054Y   26156.90673704  .00007220  00000+0  27309-3 0  9997
2 56200  97.2713  43.5629 0004141  83.0932 277.0778 15.27240609175308
